[{"OBJECT_NAME":"STARLINK-1876","OBJECT_ID":"2020-088AR","EPOCH":"2026-03-09T22:56:33.901152","MEAN_MOTION":15.63378718,"ECCENTRICITY":9.902e-5,"INCLINATION":53.0523,"RA_OF_ASC_NODE":270.431,"ARG_OF_PERICENTER":89.3659,"MEAN_ANOMALY":270.7468,"EPHEMERIS_TYPE":0,"CLASSIFICATION_TYPE":"U","NORAD_CAT_ID":47161,"ELEMENT_SET_NO":999,"REV_AT_EPOCH":29230,"BSTAR":0.00095322779,"MEAN_MOTION_DOT":0.00089898,"MEAN_MOTION_DDOT":0},{"OBJECT_NAME":"STARLINK-36281","OBJECT_ID":"2026-018S","EPOCH":"2026-03-09T22:00:01.999584","MEAN_MOTION":15.67656978,"ECCENTRICITY":0.0001832,"INCLINATION":97.2841,"RA_OF_ASC_NODE":134.8252,"ARG_OF_PERICENTER":80.2568,"MEAN_ANOMALY":121.7467,"EPHEMERIS_TYPE":0,"CLASSIFICATION_TYPE":"U","NORAD_CAT_ID":67605,"ELEMENT_SET_NO":999,"REV_AT_EPOCH":603,"BSTAR":-0.02025557,"MEAN_MOTION_DOT":-0.0195094,"MEAN_MOTION_DDOT":0}]
